     2.100          NAVIGATION                              RINEX VERSION / TYPE
fic2rin                                 08/07/2013 00:17:58 PGM / RUN BY / DATE
                                                            END OF HEADER
 9 13  8  6  1 59 44.0  .259408261627D-03  .250111042988D-11  .000000000000D+00
     .000000000000D+00  .113406250000D+03  .373194116461D-08 -.157360849861D+01
     .616535544395D-05  .173245728947D-01  .917352735996D-05  .515277749634D+04
     .179984000000D+06 -.558793544769D-07  .421049664580D+00  .422820448875D-06
     .984041357912D+00  .218625000000D+03  .170036347154D+01 -.771353558543D-08
     .152149194768D-09  .100000000000D+01  .175200000000D+04  .000000000000D+00
     .240000000000D+01  .000000000000D+00 -.558793544769D-08  .000000000000D+00
     .173316000000D+06  .400000000000D+01
29 13  8  6  1 59 44.0  .459767878056D-03  .318323145621D-11  .000000000000D+00
     .300000000000D+01 -.110250000000D+03  .417981696330D-08  .288266699963D+01
    -.590458512306D-05  .162269663997D-02  .891834497452D-05  .515361152840D+04
     .179984000000D+06  .353902578354D-07  .256698035973D+01  .465661287308D-07
     .966960564875D+00  .207875000000D+03 -.970291512308D+00 -.789532887214D-08
    -.155006456641D-09  .100000000000D+01  .175200000000D+04  .000000000000D+00
     .240000000000D+01  .000000000000D+00 -.931322574615D-08  .300000000000D+01
     .174036000000D+06  .400000000000D+01
 9 13  8  6  3 59 44.0  .259426888078D-03  .250111042988D-11  .000000000000D+00
     .120000000000D+02  .100250000000D+03  .387337562736D-08 -.523000399192D+00
     .520795583725D-05  .173237584531D-01  .974722206593D-05  .515277333832D+04
     .187184000000D+06 -.234693288803D-06  .420991939296D+00  .912696123123D-07
     .984041776307D+00  .209968750000D+03  .170048140468D+01 -.799247577584D-08
     .244653047924D-09  .100000000000D+01  .175200000000D+04  .000000000000D+00
     .240000000000D+01  .000000000000D+00 -.558793544769D-08  .120000000000D+02
     .180006000000D+06  .400000000000D+01
29 13  8  6  3 59 44.0  .459790695459D-03  .318323145621D-11  .000000000000D+00
     .400000000000D+01 -.107468750000D+03  .412660046090D-08 -.235008693887D+01
    -.552088022232D-05  .162304623518D-02  .865384936333D-05  .515361106873D+04
     .187184000000D+06  .558793544769D-08  .256692351074D+01  .540167093277D-07
     .966959495481D+00  .213906250000D+03 -.970505910267D+00 -.789568602987D-08
    -.146077513286D-09  .100000000000D+01  .175200000000D+04  .000000000000D+00
     .240000000000D+01  .000000000000D+00 -.931322574615D-08  .400000000000D+01
     .180006000000D+06  .400000000000D+01
 1 13  8  6  4  0  0.0  .595236197114D-04  .477484718431D-11  .000000000000D+00
     .840000000000D+02  .371875000000D+01  .444482800207D-08 -.105036475616D+01
     .165775418282D-06  .218597007915D-02  .105723738670D-04  .515369463158D+04
     .187200000000D+06  .763684511185D-07 -.271668877041D+01 -.149011611938D-07
     .960661175257D+00  .173687500000D+03  .310892445233D+00 -.787032783074D-08
     .603953728526D-09  .100000000000D+01  .175200000000D+04  .000000000000D+00
     .240000000000D+01  .000000000000D+00  .838190317154D-08  .840000000000D+02
     .180006000000D+06  .400000000000D+01
 2 13  8  6  4  0  0.0  .445203855634D-03  .181898940355D-11  .000000000000D+00
     .320000000000D+02  .859375000000D+01  .503163815935D-08 -.276310600828D+00
     .629574060440D-06  .124908803264D-01  .102166086435D-04  .515370702934D+04
     .187200000000D+06  .949949026108D-07 -.273987796179D+01  .130385160446D-06
     .939183192795D+00  .174375000000D+03 -.257155428722D+01 -.831498920982D-08
     .539665336370D-09  .100000000000D+01  .175200000000D+04  .000000000000D+00
     .240000000000D+01  .000000000000D+00 -.172294676304D-07  .320000000000D+02
     .180006000000D+06  .400000000000D+01
 3 13  8  6  4  0  0.0  .242266338319D-03  .500222085975D-11  .000000000000D+00
     .400000000000D+02 -.110250000000D+03  .505699635848D-08 -.111677379948D+00
    -.575557351112D-05  .166122543160D-01  .687502324581D-05  .515371690750D+04
     .187200000000D+06 -.208616256714D-06  .237309320845D+01  .197440385818D-06
     .935335172579D+00  .236156250000D+03  .131421709250D+01 -.870964850611D-08
    -.231795369493D-09  .100000000000D+01  .175200000000D+04  .000000000000D+00
     .240000000000D+01  .000000000000D+00 -.465661287308D-08  .400000000000D+02
     .180006000000D+06  .400000000000D+01
 4 13  8  6  4  0  0.0  .292250886559D-03  .103455022327D-10  .000000000000D+00
     .880000000000D+02  .812500000000D+00  .490377569051D-08  .296091111166D+01
    -.614672899246D-07  .104250750737D-01  .106748193502D-04  .515358867645D+04
     .187200000000D+06  .372529029846D-07 -.272351517188D+01 -.176951289177D-06
     .938207044615D+00  .162718750000D+03  .998320604312D+00 -.790211486909D-08
     .548594279725D-09  .100000000000D+01  .175200000000D+04  .000000000000D+00
     .240000000000D+01  .000000000000D+00 -.605359673500D-08  .880000000000D+02
     .180006000000D+06  .400000000000D+01
 5 13  8  6  4  0  0.0 -.399314332753D-03 -.341060513165D-12  .000000000000D+00
     .900000000000D+02  .621875000000D+01  .545165565477D-08  .200078393808D+01
     .443309545517D-06  .313868059311D-02  .431202352047D-05  .515366538429D+04
     .187200000000D+06 -.633299350739D-07 -.167410070097D+01  .139698386192D-06
     .947910735304D+00  .290812500000D+03  .245191381114D+00 -.850714007082D-08
     .109290266664D-09  .100000000000D+01  .175200000000D+04  .000000000000D+00
     .240000000000D+01  .000000000000D+00 -.977888703346D-08  .900000000000D+02
     .180006000000D+06  .400000000000D+01
 6 13  8  6  4  0  0.0  .107293017209D-03 -.187583282241D-10  .000000000000D+00
     .450000000000D+02 -.116468750000D+03  .477019869792D-08  .170207652081D+01
    -.604614615440D-05  .811629404780D-02  .750273466110D-05  .515368644524D+04
     .187200000000D+06  .409781932831D-07  .245308761857D+01  .124797224998D-06
     .941987675511D+00  .224343750000D+03 -.253735532212D+00 -.823677166603D-08
    -.339657005220D-09  .100000000000D+01  .175200000000D+04  .000000000000D+00
     .340000000000D+01  .000000000000D+00 -.512227416039D-08  .450000000000D+02
     .180006000000D+06  .400000000000D+01
 7 13  8  6  4  0  0.0  .244211405516D-03  .420641299570D-11  .000000000000D+00
     .670000000000D+02  .111062500000D+03  .390587698117D-08 -.165821767211D+01
     .566244125366D-05  .676466617733D-02  .947341322899D-05  .515367939568D+04
     .187200000000D+06 -.279396772385D-07  .443704517823D+00 -.119209289551D-06
     .975417708920D+00  .205500000000D+03 -.291083480407D+01 -.771139263903D-08
     .237509893240D-09  .100000000000D+01  .175200000000D+04  .000000000000D+00
     .240000000000D+01  .000000000000D+00 -.107102096081D-07  .670000000000D+02
     .180006000000D+06  .400000000000D+01
 8 13  8  6  4  0  0.0  .780681148171D-05  .227373675443D-12  .000000000000D+00
     .920000000000D+02  .114968750000D+03  .346800159904D-08 -.222761177960D+01
     .577606260777D-05  .132705555297D-01  .888854265213D-05  .515370848846D+04
     .187200000000D+06 -.745058059692D-08  .536489431373D+00 -.219792127609D-06
     .998203586958D+00  .227718750000D+03 -.285705688364D+01 -.749245494797D-08
     .347514475373D-09  .100000000000D+01  .175200000000D+04  .000000000000D+00
     .240000000000D+01  .000000000000D+00 -.372529029846D-08  .920000000000D+02
     .180006000000D+06  .400000000000D+01
10 13  8  6  4  0  0.0 -.895513221622D-04 -.136424205266D-11  .000000000000D+00
     .106000000000D+03  .721875000000D+01  .549058584780D-08  .220072303809D+01
     .227242708206D-06  .125721230870D-01  .442191958427D-05  .515364268875D+04
     .187200000000D+06 -.206753611565D-06 -.165507916131D+01 -.238418579102D-06
     .942729582711D+00  .286281250000D+03  .808197525151D+00 -.839106380720D-08
     .122505102829D-09  .100000000000D+01  .175200000000D+04  .000000000000D+00
     .340000000000D+01  .000000000000D+00 -.232830643654D-08  .106000000000D+03
     .180006000000D+06  .400000000000D+01
11 13  8  6  4  0  0.0 -.407620333135D-03 -.352429196937D-11  .000000000000D+00
     .103000000000D+03 -.212500000000D+02  .590310303079D-08 -.144173919480D+01
    -.884756445885D-06  .143315020250D-01  .111553817987D-04  .515369193268D+04
     .187200000000D+06  .299885869026D-06 -.301872176035D+01  .271946191788D-06
     .889670759661D+00  .121375000000D+03  .119135985267D+01 -.851964059151D-08
     .412517182996D-09  .100000000000D+01  .175200000000D+04  .000000000000D+00
     .340000000000D+01  .000000000000D+00 -.116415321827D-07  .103000000000D+03
     .180006000000D+06  .400000000000D+01
12 13  8  6  4  0  0.0  .148906838149D-03  .216004991671D-11  .000000000000D+00
     .370000000000D+02  .318750000000D+01  .414160108574D-08 -.195621358454D+01
     .258907675743D-06  .456697936170D-02  .151991844177D-05  .515379128075D+04
     .187200000000D+06 -.167638063431D-07  .150339810362D+01 -.484287738800D-07
     .984498073622D+00  .362968750000D+03  .321774683207D+00 -.813533886952D-08
     .703600736366D-10  .100000000000D+01  .175200000000D+04  .000000000000D+00
     .240000000000D+01  .000000000000D+00 -.116415321827D-07  .370000000000D+02
     .180006000000D+06  .400000000000D+01
13 13  8  6  4  0  0.0  .928272493184D-04 -.375166564481D-11  .000000000000D+00
     .950000000000D+02 -.925000000000D+01  .397052253106D-08  .665397140919D+00
    -.689178705215D-06  .510108470917D-02  .109151005745D-04  .515372019386D+04
     .187200000000D+06 -.242143869400D-07 -.522333244179D+00 -.113621354103D-06
     .980897219266D+00  .179375000000D+03  .218534933733D+01 -.769210612138D-08
    -.622883088438D-09  .100000000000D+01  .175200000000D+04  .000000000000D+00
     .340000000000D+01  .000000000000D+00 -.107102096081D-07  .950000000000D+02
     .180006000000D+06  .400000000000D+01
